[
  {
    "OBJECT_NAME": "STARLINK-34335",
    "OBJECT_ID": "25126U",
    "EPOCH": "2025-11-11T07:35:28.582656",
    "MEAN_MOTION": 14.98334679,
    "ECCENTRICITY": 0.0003267,
    "INCLINATION": 70.002,
    "RA_OF_ASC_NODE": 332.7979,
    "ARG_OF_PERICENTER": 268.5317,
    "MEAN_ANOMALY": 91.5467,
    "EPHEMERIS_TYPE": 0,
    "CLASSIFICATION_TYPE": "U",
    "NORAD_CAT_ID": 64362,
    "ELEMENT_SET_NO": 999,
    "REV_AT_EPOCH": 2295,
    "BSTAR": 0.00041487,
    "MEAN_MOTION_DOT": 4.861e-05,
    "MEAN_MOTION_DDOT": 0.0,
    "TLE_LINE1": "1 64362U 25126U   25315.31630304  .00004861  00000+0  41487-3 0  9998",
    "TLE_LINE2": "2 64362  70.0020 332.7979 0003267 268.5317  91.5467 14.98334679 22956",
    "COMMENT": "Grouped by shell and plane from TLE"
  },
  {
    "OBJECT_NAME": "STARLINK-34408",
    "OBJECT_ID": "25126V",
    "EPOCH": "2025-11-11T07:23:25.520928",
    "MEAN_MOTION": 14.98347467,
    "ECCENTRICITY": 0.0003165,
    "INCLINATION": 70.0037,
    "RA_OF_ASC_NODE": 332.7685,
    "ARG_OF_PERICENTER": 266.2942,
    "MEAN_ANOMALY": 93.7855,
    "EPHEMERIS_TYPE": 0,
    "CLASSIFICATION_TYPE": "U",
    "NORAD_CAT_ID": 64363,
    "ELEMENT_SET_NO": 999,
    "REV_AT_EPOCH": 2295,
    "BSTAR": 0.0,
    "MEAN_MOTION_DOT": -9.948e-05,
    "MEAN_MOTION_DDOT": 0.0,
    "TLE_LINE1": "1 64363U 25126V   25315.30793427 -.00009948  00000+0 -82672-3 0  9998",
    "TLE_LINE2": "2 64363  70.0037 332.7685 0003165 266.2942  93.7855 14.98347467 22959",
    "COMMENT": "Grouped by shell and plane from TLE"
  },
  {
    "OBJECT_NAME": "STARLINK-34476",
    "OBJECT_ID": "25126W",
    "EPOCH": "2025-11-11T06:17:24.963936",
    "MEAN_MOTION": 14.98298221,
    "ECCENTRICITY": 0.0002939,
    "INCLINATION": 70.0009,
    "RA_OF_ASC_NODE": 333.008,
    "ARG_OF_PERICENTER": 266.1176,
    "MEAN_ANOMALY": 93.9647,
    "EPHEMERIS_TYPE": 0,
    "CLASSIFICATION_TYPE": "U",
    "NORAD_CAT_ID": 64364,
    "ELEMENT_SET_NO": 999,
    "REV_AT_EPOCH": 2294,
    "BSTAR": 0.00046553,
    "MEAN_MOTION_DOT": 5.461e-05,
    "MEAN_MOTION_DDOT": 0.0,
    "TLE_LINE1": "1 64364U 25126W   25315.26209449  .00005461  00000+0  46553-3 0  9992",
    "TLE_LINE2": "2 64364  70.0009 333.0080 0002939 266.1176  93.9647 14.98298221 22941",
    "COMMENT": "Grouped by shell and plane from TLE"
  },
  {
    "OBJECT_NAME": "STARLINK-34479",
    "OBJECT_ID": "25126X",
    "EPOCH": "2025-11-11T07:17:28.892832",
    "MEAN_MOTION": 14.98337342,
    "ECCENTRICITY": 0.0002825,
    "INCLINATION": 70.002,
    "RA_OF_ASC_NODE": 333.1547,
    "ARG_OF_PERICENTER": 275.6868,
    "MEAN_ANOMALY": 84.3969,
    "EPHEMERIS_TYPE": 0,
    "CLASSIFICATION_TYPE": "U",
    "NORAD_CAT_ID": 64365,
    "ELEMENT_SET_NO": 999,
    "REV_AT_EPOCH": 2294,
    "BSTAR": 0.00047426,
    "MEAN_MOTION_DOT": 5.571e-05,
    "MEAN_MOTION_DDOT": 0.0,
    "TLE_LINE1": "1 64365U 25126X   25315.30380663  .00005571  00000+0  47426-3 0  9998",
    "TLE_LINE2": "2 64365  70.0020 333.1547 0002825 275.6868  84.3969 14.98337342 22940",
    "COMMENT": "Grouped by shell and plane from TLE"
  },
  {
    "OBJECT_NAME": "STARLINK-34484",
    "OBJECT_ID": "25126Y",
    "EPOCH": "2025-11-11T07:29:27.650976",
    "MEAN_MOTION": 14.98342538,
    "ECCENTRICITY": 0.000306,
    "INCLINATION": 70.001,
    "RA_OF_ASC_NODE": 332.7825,
    "ARG_OF_PERICENTER": 269.5022,
    "MEAN_ANOMALY": 90.5787,
    "EPHEMERIS_TYPE": 0,
    "CLASSIFICATION_TYPE": "U",
    "NORAD_CAT_ID": 64366,
    "ELEMENT_SET_NO": 999,
    "REV_AT_EPOCH": 2416,
    "BSTAR": 0.00049403,
    "MEAN_MOTION_DOT": 5.808e-05,
    "MEAN_MOTION_DDOT": 0.0,
    "TLE_LINE1": "1 64366U 25126Y   25315.31212559  .00005808  00000+0  49403-3 0  9998",
    "TLE_LINE2": "2 64366  70.0010 332.7825 0003060 269.5022  90.5787 14.98342538 24166",
    "COMMENT": "Grouped by shell and plane from TLE"
  },
  {
    "OBJECT_NAME": "STARLINK-34483",
    "OBJECT_ID": "25126Z",
    "EPOCH": "2025-11-11T07:35:42.655488",
    "MEAN_MOTION": 14.98346608,
    "ECCENTRICITY": 0.0002588,
    "INCLINATION": 70.003,
    "RA_OF_ASC_NODE": 332.7968,
    "ARG_OF_PERICENTER": 266.8779,
    "MEAN_ANOMALY": 93.2084,
    "EPHEMERIS_TYPE": 0,
    "CLASSIFICATION_TYPE": "U",
    "NORAD_CAT_ID": 64367,
    "ELEMENT_SET_NO": 999,
    "REV_AT_EPOCH": 2295,
    "BSTAR": 0.0010885,
    "MEAN_MOTION_DOT": 0.00012924,
    "MEAN_MOTION_DDOT": 0.0,
    "TLE_LINE1": "1 64367U 25126Z   25315.31646592  .00012924  00000+0  10885-2 0  9995",
    "TLE_LINE2": "2 64367  70.0030 332.7968 0002588 266.8779  93.2084 14.98346608 22957",
    "COMMENT": "Grouped by shell and plane from TLE"
  },
  {
    "OBJECT_NAME": "STARLINK-34457",
    "OBJECT_ID": "25126AA",
    "EPOCH": "2025-11-11T06:53:26.047392",
    "MEAN_MOTION": 14.98339484,
    "ECCENTRICITY": 0.00031,
    "INCLINATION": 70.0018,
    "RA_OF_ASC_NODE": 333.0963,
    "ARG_OF_PERICENTER": 271.0785,
    "MEAN_ANOMALY": 89.0019,
    "EPHEMERIS_TYPE": 0,
    "CLASSIFICATION_TYPE": "U",
    "NORAD_CAT_ID": 64368,
    "ELEMENT_SET_NO": 999,
    "REV_AT_EPOCH": 2294,
    "BSTAR": 0.00040144000000000003,
    "MEAN_MOTION_DOT": 4.701e-05,
    "MEAN_MOTION_DDOT": 0.0,
    "TLE_LINE1": "1 64368U 25126AA  25315.28710703  .00004701  00000+0  40144-3 0  9994",
    "TLE_LINE2": "2 64368  70.0018 333.0963 0003100 271.0785  89.0019 14.98339484 22943",
    "COMMENT": "Grouped by shell and plane from TLE"
  },
  {
    "OBJECT_NAME": "STARLINK-34444",
    "OBJECT_ID": "25126AB",
    "EPOCH": "2025-11-11T06:59:41.000064",
    "MEAN_MOTION": 14.98336863,
    "ECCENTRICITY": 0.0003145,
    "INCLINATION": 70.0025,
    "RA_OF_ASC_NODE": 333.1094,
    "ARG_OF_PERICENTER": 270.0696,
    "MEAN_ANOMALY": 90.0103,
    "EPHEMERIS_TYPE": 0,
    "CLASSIFICATION_TYPE": "U",
    "NORAD_CAT_ID": 64369,
    "ELEMENT_SET_NO": 999,
    "REV_AT_EPOCH": 2294,
    "BSTAR": 0.00030496,
    "MEAN_MOTION_DOT": 3.548e-05,
    "MEAN_MOTION_DDOT": 0.0,
    "TLE_LINE1": "1 64369U 25126AB  25315.29144676  .00003548  00000+0  30496-3 0  9993",
    "TLE_LINE2": "2 64369  70.0025 333.1094 0003145 270.0696  90.0103 14.98336863 22941",
    "COMMENT": "Grouped by shell and plane from TLE"
  }
]